[{"OBJECT_NAME":"OBJECT A","OBJECT_ID":"2025-180A","EPOCH":"2026-03-01T05:02:02.349888","MEAN_MOTION":15.19541211,"ECCENTRICITY":0.00119112,"INCLINATION":97.5026,"RA_OF_ASC_NODE":189.2879,"ARG_OF_PERICENTER":335.2896,"MEAN_ANOMALY":24.7766,"EPHEMERIS_TYPE":0,"CLASSIFICATION_TYPE":"U","NORAD_CAT_ID":65259,"ELEMENT_SET_NO":999,"REV_AT_EPOCH":2937,"BSTAR":0.0010883245,"MEAN_MOTION_DOT":0.00023159,"MEAN_MOTION_DDOT":0},{"OBJECT_NAME":"FLOCK 4H-16","OBJECT_ID":"2025-276BF","EPOCH":"2026-03-09T18:22:00.923808","MEAN_MOTION":15.18505927,"ECCENTRICITY":0.00041583,"INCLINATION":97.4302,"RA_OF_ASC_NODE":144.0218,"ARG_OF_PERICENTER":10.1736,"MEAN_ANOMALY":349.9581,"EPHEMERIS_TYPE":0,"CLASSIFICATION_TYPE":"U","NORAD_CAT_ID":66719,"ELEMENT_SET_NO":999,"REV_AT_EPOCH":1532,"BSTAR":0.00041273119,"MEAN_MOTION_DOT":8.452e-5,"MEAN_MOTION_DDOT":0}]
